{
"type": "FeatureCollection",
"name": "La Petronila_11_zonas",
"crs": { "type": "name", "properties": { "name": "urn:ogc:def:crs:OGC:1.3:CRS84" } },
"features": [
{ "type": "Feature", "properties": { "zona": "8", "zona_id": "8" }, "geometry": { "type": "Polygon", "coordinates": [ [ [ -62.541646153571072, -31.652992224360649 ], [ -62.541906363193753, -31.652978323553722 ], [ -62.542305057914184, -31.653016841328444 ], [ -62.542850256290372, -31.653241319952695 ], [ -62.543343320856671, -31.65348786221309 ], [ -62.543652444021951, -31.653855809472525 ], [ -62.543655423304259, -31.653852021199619 ], [ -62.543699840751792, -31.653827820128132 ], [ -62.543733591925609, -31.653827940786378 ], [ -62.543777850674807, -31.653836218953238 ], [ -62.543803111171613, -31.653847135854299 ], [ -62.543822003664189, -31.653866149948811 ], [ -62.543821933152223, -31.65388058517809 ], [ -62.543840825655352, -31.65389959926982 ], [ -62.543866086176735, -31.653910516158511 ], [ -62.543910344977306, -31.653918794279818 ], [ -62.543944096185001, -31.653918914882706 ], [ -62.543988354996806, -31.65392719297704 ], [ -62.544013615543236, -31.653938109836737 ], [ -62.544032508097239, -31.653957123900415 ], [ -62.54403243761756, -31.653971559129889 ], [ -62.544051330182114, -31.653990573190779 ], [ -62.544076590753107, -31.654001490038127 ], [ -62.544120849616299, -31.65400976808689 ], [ -62.544154600857851, -31.654009888634423 ], [ -62.544198859732276, -31.654018166656236 ], [ -62.544224120328323, -31.654029083474573 ], [ -62.544243012943753, -31.654048097507381 ], [ -62.544242942496375, -31.654062532737097 ], [ -62.544252342578218, -31.654081512871926 ], [ -62.544264946470676, -31.654092384487619 ], [ -62.544287056120083, -31.654100583389827 ], [ -62.544303931757632, -31.654100643642877 ], [ -62.544326041412482, -31.654108842538388 ], [ -62.544338645317275, -31.654119714146862 ], [ -62.544348045424272, -31.654138694274732 ], [ -62.544347974992867, -31.65415312950444 ], [ -62.544357375105044, -31.654172109631563 ], [ -62.544369979021958, -31.654182981236932 ], [ -62.54439208870216, -31.654191180121138 ], [ -62.544408964356329, -31.654191240360458 ], [ -62.544431074041995, -31.654199439237946 ], [ -62.544443677971223, -31.654210310836113 ], [ -62.544453078108546, -31.654229290956266 ], [ -62.544453007693143, -31.654243726185982 ], [ -62.544454766539182, -31.65424727752724 ], [ -62.54496947333832, -31.654324428995558 ], [ -62.545176718893003, -31.654503187469174 ], [ -62.545373200387225, -31.655255261444527 ], [ -62.546129855810641, -31.655134260632792 ], [ -62.546296763111556, -31.655078956639507 ], [ -62.546332013579203, -31.655067276517023 ], [ -62.54634074770896, -31.655064382490888 ], [ -62.546341085608802, -31.655064270528836 ], [ -62.546346063488258, -31.655062621123939 ], [ -62.54636034679389, -31.65505788839355 ], [ -62.546527253825069, -31.655002584095623 ], [ -62.547525020552172, -31.654856094055756 ], [ -62.547223891451566, -31.650408688374103 ], [ -62.546878434884896, -31.650496376080273 ], [ -62.546790861066015, -31.650674085071707 ], [ -62.546962986253263, -31.650941725962927 ], [ -62.54678891751135, -31.651074622938111 ], [ -62.546200222703462, -31.650879676428328 ], [ -62.545906633527622, -31.650626437450764 ], [ -62.545802797780446, -31.650581563031551 ], [ -62.545577135009182, -31.650625264808962 ], [ -62.545229211020633, -31.650846550523873 ], [ -62.544624553166486, -31.650369675077393 ], [ -62.544400988858378, -31.649983167531978 ], [ -62.544315871554488, -31.649656493878062 ], [ -62.544802889111018, -31.649361531738219 ], [ -62.545583269727786, -31.649364312304193 ], [ -62.545825044972567, -31.649572862715281 ], [ -62.545841016318668, -31.649854784413264 ], [ -62.546152737754269, -31.649944903109386 ], [ -62.546551673529507, -31.64993148595147 ], [ -62.546828784067536, -31.650006645048041 ], [ -62.547194495537759, -31.649974516453121 ], [ -62.547040786587125, -31.647704205112237 ], [ -62.541383815875506, -31.648668695306647 ], [ -62.540478690010012, -31.648822990355534 ], [ -62.535726731478483, -31.649632933529539 ], [ -62.536583610035706, -31.65335685426481 ], [ -62.536583892424794, -31.653358081454748 ], [ -62.53658662729682, -31.653369966499742 ], [ -62.536591037926982, -31.653389133948902 ], [ -62.536665391940396, -31.653712255931964 ], [ -62.536703442533707, -31.653712394056647 ], [ -62.536717937997899, -31.653712446672596 ], [ -62.536736923015958, -31.65372063553712 ], [ -62.536747740911373, -31.653731501407833 ], [ -62.536755800631724, -31.653750477221699 ], [ -62.536755729027874, -31.653764912436891 ], [ -62.536784112559445, -31.653783962012 ], [ -62.536822028880003, -31.653794926220499 ], [ -62.536888436150342, -31.653803287146928 ], [ -62.536939062849385, -31.653803470832536 ], [ -62.537005470137053, -31.653811831698214 ], [ -62.537043386495739, -31.653822795841268 ], [ -62.537071770104269, -31.653841845352968 ], [ -62.537071698548999, -31.653856280568601 ], [ -62.537081097146242, -31.653875261218118 ], [ -62.537093700167091, -31.653886133534094 ], [ -62.537115809122099, -31.653894333672394 ], [ -62.537132684705384, -31.653894394873248 ], [ -62.537154793665856, -31.65390259500483 ], [ -62.537167396699033, -31.653913467313604 ], [ -62.537176795321407, -31.653932447956151 ], [ -62.537176723782132, -31.653946883171795 ], [ -62.537205107455634, -31.653965932654099 ], [ -62.537243023900857, -31.653976896738399 ], [ -62.537309431340937, -31.653985257447125 ], [ -62.537360058141644, -31.653985440966697 ], [ -62.537426546037466, -31.65397756199663 ], [ -62.537464569756629, -31.653966873191184 ], [ -62.53749314115818, -31.653948030167424 ], [ -62.537493212648556, -31.65393359495113 ], [ -62.537502798997764, -31.6539146831274 ], [ -62.537515509303809, -31.653903902577607 ], [ -62.537537698719824, -31.653895863024669 ], [ -62.537554574304387, -31.653895924169753 ], [ -62.537576763715222, -31.653887884609961 ], [ -62.537589474009131, -31.653877104052636 ], [ -62.537599060333001, -31.653858192221279 ], [ -62.537599131806751, -31.653843757004566 ], [ -62.537608718125149, -31.653824845172316 ], [ -62.537621428406744, -31.653814064611595 ], [ -62.537643617792426, -31.653806025039842 ], [ -62.537660493361024, -31.653806086170771 ], [ -62.537682763134768, -31.653781806973015 ], [ -62.537695580589876, -31.653749373579021 ], [ -62.537705354453415, -31.653692569293717 ], [ -62.537705568823846, -31.653649263641697 ], [ -62.537715342670033, -31.653592459354563 ], [ -62.537728160087028, -31.653560025955983 ], [ -62.537750429783827, -31.653535746744769 ], [ -62.537767305303838, -31.653535807861093 ], [ -62.537789494610855, -31.65352776826288 ], [ -62.537802204830939, -31.653516987683052 ], [ -62.537811791074006, -31.653498075833888 ], [ -62.53781186251387, -31.653483640615914 ], [ -62.53782144875148, -31.653464728765861 ], [ -62.537834158959235, -31.653453948182634 ], [ -62.537856348241121, -31.653445908572458 ], [ -62.537873223745152, -31.653445969674625 ], [ -62.537895413021857, -31.653437930057603 ], [ -62.537908123217491, -31.653427149466843 ], [ -62.537917709429742, -31.653408237609156 ], [ -62.537917780852993, -31.653393802390777 ], [ -62.537927367059801, -31.653374890532199 ], [ -62.537940077243107, -31.653364109938046 ], [ -62.537962266494652, -31.653356070309034 ], [ -62.53797914198271, -31.653356131397064 ], [ -62.538001331229083, -31.653348091761202 ], [ -62.53801404140026, -31.653337311159529 ], [ -62.538023627581715, -31.653318399293308 ], [ -62.538023698988347, -31.65330396407451 ], [ -62.538033285164346, -31.653285052207426 ], [ -62.538045995323195, -31.653274271602346 ], [ -62.538068184544429, -31.653266231954518 ], [ -62.538085060016492, -31.653266293028373 ], [ -62.538107249232553, -31.653258253373703 ], [ -62.53811995937928, -31.653247472761077 ], [ -62.538129545529934, -31.653228560886358 ], [ -62.538129616919939, -31.653214125667141 ], [ -62.538139203065136, -31.653195213791538 ], [ -62.538151913199535, -31.653184433175515 ], [ -62.538174102390435, -31.653176393508872 ], [ -62.538190977846533, -31.653176454568577 ], [ -62.538213167032261, -31.653168414895092 ], [ -62.538225877154531, -31.653157634271533 ], [ -62.538235463274376, -31.653138722388306 ], [ -62.538235534647768, -31.653124287168652 ], [ -62.53826410563601, -31.653105443965863 ], [ -62.538302128906167, -31.653094754905148 ], [ -62.53836861609382, -31.653086875436376 ], [ -62.53841924241511, -31.653087058531185 ], [ -62.538485649336771, -31.653095418624048 ], [ -62.538523565585216, -31.653106382327483 ], [ -62.538551949284148, -31.653125431512947 ], [ -62.538551877959677, -31.653139866733227 ], [ -62.538580261674547, -31.653158915912446 ], [ -62.538618177960146, -31.65316987958801 ], [ -62.538684584959768, -31.653178239577983 ], [ -62.538735211332835, -31.653178422547942 ], [ -62.538801618349801, -31.653186782477167 ], [ -62.538839534673521, -31.653197746087297 ], [ -62.538867918465343, -31.6532167952031 ], [ -62.538867847189444, -31.65323123042382 ], [ -62.538905723449744, -31.65325031382611 ], [ -62.538956296416714, -31.65326132312434 ], [ -62.539044852574719, -31.653269762932542 ], [ -62.539112354475165, -31.653270006698122 ], [ -62.539200910656909, -31.653278446398261 ], [ -62.5392514836754, -31.653289455579962 ], [ -62.539289360039035, -31.653308538869204 ], [ -62.539289288828016, -31.65332297409056 ], [ -62.539336657675449, -31.653342091629458 ], [ -62.539399887363182, -31.653353146432654 ], [ -62.539510592736413, -31.653361665846926 ], [ -62.539594970200653, -31.653361970241217 ], [ -62.539705755644455, -31.65335424986166 ], [ -62.539769092091952, -31.65334365164912 ], [ -62.539816647765548, -31.653324876552158 ], [ -62.539816718895047, -31.653310441329729 ], [ -62.53986427454231, -31.653291666214695 ], [ -62.539927610930299, -31.653281067922805 ], [ -62.540038396254303, -31.653273347253222 ], [ -62.540122773645017, -31.653273651297848 ], [ -62.540233558946284, -31.653265930458634 ], [ -62.540296895277251, -31.653255331982869 ], [ -62.540344450802102, -31.653236556687574 ], [ -62.540344521849789, -31.653222121463845 ], [ -62.540373092448839, -31.653203277785476 ], [ -62.540411115525771, -31.653192588094697 ], [ -62.540477602619561, -31.653184707526389 ], [ -62.540528229008913, -31.653184889785194 ], [ -62.540594716088123, -31.653177009155737 ], [ -62.540632739129812, -31.653166319398551 ], [ -62.540661309654332, -31.653147475654762 ], [ -62.540661380652786, -31.653133040430198 ], [ -62.540689951161355, -31.653114196679759 ], [ -62.540727974166842, -31.653103506893746 ], [ -62.540794461172517, -31.653095626159416 ], [ -62.540845087515834, -31.653095808292086 ], [ -62.540911574506929, -31.653087927496596 ], [ -62.540949597477173, -31.653077237644165 ], [ -62.540978167911206, -31.653058393828317 ], [ -62.540978238860433, -31.653043958602929 ], [ -62.541025794143422, -31.653025183050811 ], [ -62.541089130225963, -31.653014584179115 ], [ -62.541199915150642, -31.653006862497094 ], [ -62.541284292314351, -31.653007165771594 ], [ -62.541394997471009, -31.653015683549562 ], [ -62.541458227195164, -31.653026737333843 ], [ -62.541503893419694, -31.653045166822391 ], [ -62.54156803969726, -31.65300677880315 ], [ -62.541646153571072, -31.652992224360649 ] ], [ [ -62.540578985014015, -31.651349122007858 ], [ -62.540250725585572, -31.651095745324568 ], [ -62.539818196348662, -31.65088649687166 ], [ -62.539576285044269, -31.65070760466282 ], [ -62.539420865178428, -31.650573529075519 ], [ -62.539387351704029, -31.650336048374559 ], [ -62.53949242742447, -31.650128737706765 ], [ -62.539544599448398, -31.650099255949598 ], [ -62.539561941362912, -31.650099318507465 ], [ -62.54009910247521, -31.650190264974491 ], [ -62.540565656357465, -31.650533149834551 ], [ -62.541119507055512, -31.650757666971892 ], [ -62.541483617093412, -31.650773810448289 ], [ -62.541864414427657, -31.650923527664208 ], [ -62.541759706945143, -31.65105666667608 ], [ -62.54136025594142, -31.651173911870153 ], [ -62.541029443508911, -31.65143975248586 ], [ -62.540578985014015, -31.651349122007858 ] ], [ [ -62.539815309218675, -31.651472468336966 ], [ -62.540248644415811, -31.651518534880108 ], [ -62.540750400533298, -31.651757700944373 ], [ -62.540420241280806, -31.651890027438156 ], [ -62.539916804531998, -31.651992058627442 ], [ -62.539656012456533, -31.652124633149647 ], [ -62.538823729063921, -31.652091958723901 ], [ -62.538182504764158, -31.65200063038154 ], [ -62.537749095021496, -31.651969391529967 ], [ -62.537491018135029, -31.651553077166838 ], [ -62.537302385429292, -31.651122179042247 ], [ -62.537269906105045, -31.650677011827767 ], [ -62.537375354283846, -31.650395529376464 ], [ -62.53787922543161, -31.650204499817708 ], [ -62.538208942143832, -31.650161188157885 ], [ -62.538366192556623, -31.649924397203968 ], [ -62.538834423313197, -31.649926089753684 ], [ -62.539023792926528, -31.650208638528461 ], [ -62.538572023229122, -31.650385025993522 ], [ -62.538345697805042, -31.650562227433113 ], [ -62.538465259159615, -31.650933534405141 ], [ -62.538706729279383, -31.651201437008886 ], [ -62.538828343847008, -31.651157371519179 ], [ -62.539158795481363, -31.65096571024608 ], [ -62.539815309218675, -31.651472468336966 ] ] ] } },
{ "type": "Feature", "properties": { "zona": "salino", "zona_id": "SALINO" }, "geometry": { "type": "MultiPolygon", "coordinates": [ [ [ [ -62.544577646838206, -31.654855874470435 ], [ -62.544599954679882, -31.654823474238899 ], [ -62.544616830448795, -31.654823534451818 ], [ -62.54463913826909, -31.654791134213081 ], [ -62.544652006249876, -31.654747873682293 ], [ -62.544661868380722, -31.654672122595787 ], [ -62.544662149917649, -31.654614381678904 ], [ -62.544653026842511, -31.654538562858864 ], [ -62.544640581216015, -31.654495212014947 ], [ -62.544618590225753, -31.654462653723506 ], [ -62.544610152373885, -31.65446262361775 ], [ -62.544601714522045, -31.654462593511425 ], [ -62.544579644357, -31.654446274846531 ], [ -62.544567093179012, -31.654424576839602 ], [ -62.54455778539883, -31.654386650489226 ], [ -62.544557926198003, -31.654357780029965 ], [ -62.544548618427861, -31.654319853678633 ], [ -62.544536067273732, -31.654298155668446 ], [ -62.544513997158802, -31.65428183699224 ], [ -62.544505559323404, -31.654281806879723 ], [ -62.544497121488014, -31.654281776766645 ], [ -62.54447501177701, -31.654273577900486 ], [ -62.544462407835645, -31.654262706305374 ], [ -62.544453007693143, -31.654243726185982 ], [ -62.544453078108546, -31.654229290956259 ], [ -62.544443677971223, -31.654210310836113 ], [ -62.544431074041995, -31.654199439237949 ], [ -62.544408964356329, -31.654191240360461 ], [ -62.544400526529238, -31.654191210241073 ], [ -62.54439208870216, -31.654191180121131 ], [ -62.544369979021958, -31.654182981236932 ], [ -62.544357375105044, -31.654172109631549 ], [ -62.544347974992867, -31.65415312950444 ], [ -62.544348045424272, -31.65413869427471 ], [ -62.544338645317275, -31.654119714146862 ], [ -62.544326041412482, -31.654108842538399 ], [ -62.544303931757632, -31.654100643642892 ], [ -62.544295493938847, -31.654100613516643 ], [ -62.544287056120083, -31.654100583389813 ], [ -62.544264946470676, -31.654092384487619 ], [ -62.544252342578218, -31.654081512871926 ], [ -62.544242942496375, -31.654062532737097 ], [ -62.544243012943753, -31.654048097507378 ], [ -62.544224120328323, -31.654029083474573 ], [ -62.544198859732276, -31.654018166656243 ], [ -62.544154600857851, -31.65400988863443 ], [ -62.54413772523705, -31.654009828361776 ], [ -62.544120849616299, -31.65400976808689 ], [ -62.544076590753107, -31.654001490038127 ], [ -62.544051330182114, -31.653990573190764 ], [ -62.54403243761756, -31.653971559129889 ], [ -62.544032508097239, -31.653957123900405 ], [ -62.544013615543236, -31.653938109836737 ], [ -62.543988354996806, -31.653927192977047 ], [ -62.543944096185001, -31.653918914882713 ], [ -62.543927220581118, -31.653918854582383 ], [ -62.543910344977306, -31.653918794279818 ], [ -62.543866086176735, -31.653910516158511 ], [ -62.543840825655352, -31.653899599269803 ], [ -62.543821933152223, -31.65388058517809 ], [ -62.543822003664189, -31.653866149948811 ], [ -62.543803111171613, -31.653847135854299 ], [ -62.543777850674793, -31.653836218953252 ], [ -62.543733591925609, -31.653827940786378 ], [ -62.543716716338672, -31.65382788045838 ], [ -62.543699840751792, -31.653827820128132 ], [ -62.543655423304259, -31.653852021199604 ], [ -62.543629951198987, -31.653884409956227 ], [ -62.543610688382721, -31.653941180784791 ], [ -62.543610476748078, -31.653984486470723 ], [ -62.54361969151612, -31.654041359125987 ], [ -62.543632189516046, -31.654073883646163 ], [ -62.54365421974834, -31.654098322289439 ], [ -62.543671095383985, -31.654098382626152 ], [ -62.543693085957671, -31.654130941078794 ], [ -62.543705531096762, -31.654174292012961 ], [ -62.543714653369982, -31.654250110897433 ], [ -62.543714371251241, -31.654307851809996 ], [ -62.543704508395045, -31.654383602820719 ], [ -62.543691640028925, -31.654426863254763 ], [ -62.543669331970683, -31.654459263327453 ], [ -62.543660894120237, -31.654459233158946 ], [ -62.543652456269811, -31.654459202989869 ], [ -62.543630227551375, -31.654475363424414 ], [ -62.543617464955737, -31.654496971008758 ], [ -62.543607787184833, -31.654534829537152 ], [ -62.543607646090948, -31.654563699991765 ], [ -62.543616953501086, -31.654601626406915 ], [ -62.543629504480364, -31.654623324504826 ], [ -62.543651574518677, -31.654639643332406 ], [ -62.543668450252149, -31.654639703670391 ], [ -62.543690520301205, -31.654656022491292 ], [ -62.543703071304819, -31.654677720582026 ], [ -62.54371237876456, -31.654715646990013 ], [ -62.543712237702024, -31.654744517444222 ], [ -62.543721545171799, -31.654782443851246 ], [ -62.543734096199273, -31.654804141938726 ], [ -62.543756166298422, -31.654820460748315 ], [ -62.543773042064821, -31.654820521072796 ], [ -62.543795151841508, -31.654828720060504 ], [ -62.543807755779881, -31.654839591720535 ], [ -62.543817155849041, -31.654858571885004 ], [ -62.5438170853336, -31.65487300711203 ], [ -62.543835978033897, -31.654892021203413 ], [ -62.543861238821655, -31.654902938093908 ], [ -62.543905498090993, -31.65491121622005 ], [ -62.543939249657328, -31.654911336827581 ], [ -62.543983350335566, -31.654952094187951 ], [ -62.544008399698534, -31.655006316730908 ], [ -62.544026922426269, -31.65510111573591 ], [ -62.544026570007347, -31.655173291870025 ], [ -62.544016614791175, -31.655267989130977 ], [ -62.544003693576201, -31.655322076010496 ], [ -62.543981345756237, -31.655362595946958 ], [ -62.543972907823807, -31.65536256579831 ], [ -62.543964469891399, -31.655362535649093 ], [ -62.543942280664048, -31.655370576319481 ], [ -62.543929570889809, -31.655381357511981 ], [ -62.543919985681455, -31.655400269825023 ], [ -62.543919915180425, -31.655414705051015 ], [ -62.543939137315974, -31.655433720303506 ], [ -62.543964837336425, -31.65544463874302 ], [ -62.544009865252256, -31.655452919580274 ], [ -62.5440442024478, -31.655453042253477 ], [ -62.544134337587089, -31.655453364226741 ], [ -62.544265803275252, -31.655432342560147 ], [ -62.544265957817665, -31.655432317848362 ], [ -62.544267199179238, -31.655432119351097 ], [ -62.544268008252452, -31.65543198997797 ], [ -62.544268744259817, -31.655431872288275 ], [ -62.544306857059524, -31.65542577793564 ], [ -62.544307347768374, -31.655425699469713 ], [ -62.544307558848999, -31.655425665717249 ], [ -62.5443082491065, -31.655425555342848 ], [ -62.544310470194041, -31.655425200183792 ], [ -62.544315885427551, -31.655424334270329 ], [ -62.544447351036666, -31.655403312415796 ], [ -62.544447800750483, -31.655311125791496 ], [ -62.544447972069499, -31.655276007077109 ], [ -62.544457689586359, -31.655229947645921 ], [ -62.544470474950394, -31.655203653784252 ], [ -62.544492720843984, -31.6551839785593 ], [ -62.544509596677791, -31.655184038786995 ], [ -62.544531904622779, -31.655151638570004 ], [ -62.544544772704938, -31.655108378053406 ], [ -62.544554634964506, -31.655032626980628 ], [ -62.544554916571684, -31.654974886067862 ], [ -62.544564778807533, -31.654899134992515 ], [ -62.544577646838206, -31.654855874470435 ] ] ], [ [ [ -62.536772656787775, -31.654178395371371 ], [ -62.536772944763122, -31.654179646815827 ], [ -62.536772966646886, -31.654179741915353 ], [ -62.536774224339602, -31.65418520742638 ], [ -62.536774355664605, -31.65418577812078 ], [ -62.536774422127401, -31.654186066945819 ], [ -62.536774747097098, -31.654187479155091 ], [ -62.536776493076026, -31.654195066592958 ], [ -62.536795373278217, -31.654277113530402 ], [ -62.536811104675984, -31.654345476724941 ], [ -62.536831788668167, -31.654435362023968 ], [ -62.53684363591816, -31.654486845895711 ], [ -62.536852570028906, -31.654525670278453 ], [ -62.536852580584757, -31.654525716150346 ], [ -62.536852582920368, -31.654525726300026 ], [ -62.53685259157168, -31.654525763895446 ], [ -62.53685260055569, -31.654525802936686 ], [ -62.536852634915455, -31.654525952251571 ], [ -62.536852805242638, -31.654526692431027 ], [ -62.536858165556595, -31.654525972320858 ], [ -62.536860207581192, -31.654525697993094 ], [ -62.536909650569577, -31.654519055758357 ], [ -62.536973532519767, -31.654510473745081 ], [ -62.537083794387982, -31.654495660893147 ], [ -62.537144314856725, -31.654487530381179 ], [ -62.53715128645981, -31.654486593791937 ], [ -62.53715724406721, -31.654485793426065 ], [ -62.537162035575498, -31.654485149717832 ], [ -62.537166928255196, -31.654484492417673 ], [ -62.537177675120681, -31.654483048644465 ], [ -62.537214249960499, -31.654478135039671 ], [ -62.537214757058429, -31.654478066914113 ], [ -62.537233652862383, -31.654475528374654 ], [ -62.537287759116474, -31.654468259503307 ], [ -62.537365733066331, -31.654457784098636 ], [ -62.537439837097381, -31.654447828551529 ], [ -62.537460668535978, -31.654445029932202 ], [ -62.53751535105657, -31.654437683540262 ], [ -62.537856778565562, -31.654444051345436 ], [ -62.537862753097066, -31.6544441627655 ], [ -62.537866631886374, -31.654444235101558 ], [ -62.537880201283471, -31.65444448815812 ], [ -62.537921301387378, -31.654445254627781 ], [ -62.537986846203424, -31.654446476935849 ], [ -62.538328273793198, -31.6544528434803 ], [ -62.53832942105408, -31.654447476654969 ], [ -62.53832948002745, -31.654447200780687 ], [ -62.538329480193589, -31.654447200003467 ], [ -62.53832956942226, -31.654446782596491 ], [ -62.538329858105811, -31.654445432150084 ], [ -62.538340065307644, -31.654397683372757 ], [ -62.538353237842699, -31.654336062839356 ], [ -62.538375961948752, -31.654229760279641 ], [ -62.538393088210967, -31.654149644065495 ], [ -62.538438044505305, -31.653939338986284 ], [ -62.538532338760575, -31.653887435225222 ], [ -62.53855029955929, -31.653877548786475 ], [ -62.538568260354204, -31.653867662345153 ], [ -62.538662554465468, -31.653815758485912 ], [ -62.538874035706321, -31.653997458421738 ], [ -62.538929298050839, -31.654044938414046 ], [ -62.538932693209198, -31.654047855444887 ], [ -62.538936857176594, -31.654051433015894 ], [ -62.538946986373539, -31.654060135753085 ], [ -62.53895460020501, -31.654066677353441 ], [ -62.539166082582277, -31.654248376809061 ], [ -62.539168940218168, -31.654254377566655 ], [ -62.539170028841461, -31.654256663569544 ], [ -62.539172018122279, -31.654260840865163 ], [ -62.539173581873449, -31.654264124589769 ], [ -62.539175501970554, -31.654268156605667 ], [ -62.539176130636463, -31.654269476742439 ], [ -62.539176216184082, -31.654269656384074 ], [ -62.539176323607968, -31.654269881963678 ], [ -62.539176329819682, -31.654269895007644 ], [ -62.539176498348802, -31.654270248902275 ], [ -62.539223727515036, -31.65436942540412 ], [ -62.539285703507822, -31.654499568416114 ], [ -62.539299391109594, -31.654528310875659 ], [ -62.539314888741387, -31.654560854176406 ], [ -62.539326247889683, -31.654584707107233 ], [ -62.539337095593822, -31.654607486050789 ], [ -62.539393414615198, -31.65472574939114 ], [ -62.539475053542084, -31.654897180992503 ], [ -62.539583260584571, -31.65512440129293 ], [ -62.539588428728592, -31.655135253673659 ], [ -62.539591024966171, -31.655140705408979 ], [ -62.539591835710944, -31.65514240785933 ], [ -62.539605376774595, -31.655170842184443 ], [ -62.539645897607656, -31.655255930111558 ], [ -62.539671273673257, -31.655309216118255 ], [ -62.539682130659351, -31.655332014172824 ], [ -62.539684189743966, -31.655336337942625 ], [ -62.539685079392314, -31.65533820607099 ], [ -62.539694282831377, -31.655357531910816 ], [ -62.539696159287402, -31.655361472185604 ], [ -62.539703502141776, -31.655376891069437 ], [ -62.53971141616055, -31.655393509306016 ], [ -62.539723858356233, -31.655419636013033 ], [ -62.539725103173524, -31.655422249937992 ], [ -62.539725761716625, -31.655423632777204 ], [ -62.539725993540408, -31.655424119571496 ], [ -62.539726808146646, -31.655425830119228 ], [ -62.539732533932209, -31.655437853385735 ], [ -62.539755307335057, -31.655485673986178 ], [ -62.539774818837273, -31.655655039125374 ], [ -62.539782251808084, -31.655719559176617 ], [ -62.539792201721767, -31.655805926790205 ], [ -62.539798035299292, -31.655856563557411 ], [ -62.539802669319883, -31.655896787862822 ], [ -62.539802932671996, -31.655899073815377 ], [ -62.539802984568354, -31.655899524286916 ], [ -62.539802998026936, -31.655899641110249 ], [ -62.539803006052658, -31.655899710775167 ], [ -62.539803014431271, -31.655899783503326 ], [ -62.539805891257252, -31.655924754959639 ], [ -62.539806260797469, -31.655927962645748 ], [ -62.539806286131835, -31.655928182553293 ], [ -62.539806329964975, -31.655928563034106 ], [ -62.539806487485386, -31.655929930343991 ], [ -62.539809381915688, -31.655955054593999 ], [ -62.539815231738991, -31.656005832223265 ], [ -62.539819540845933, -31.656043236094501 ], [ -62.539830852267166, -31.656141421254912 ], [ -62.53995205327503, -31.656122045322835 ], [ -62.539993268219867, -31.656115456422334 ], [ -62.539993971844119, -31.656115343936065 ], [ -62.539994197946726, -31.656115307789737 ], [ -62.539995611060071, -31.656115081879587 ], [ -62.539998225074697, -31.656114663984955 ], [ -62.540072465651917, -31.656102795343852 ], [ -62.540095345192647, -31.65609913764397 ], [ -62.540105053226775, -31.656097585641419 ], [ -62.540119504267253, -31.656095275383162 ], [ -62.540124120295417, -31.656094537427812 ], [ -62.540125281286613, -31.656094351822407 ], [ -62.540183079801224, -31.656085111671864 ], [ -62.540207328859054, -31.656081235007729 ], [ -62.540273017588632, -31.656070733414406 ], [ -62.540336353493608, -31.656060607930531 ], [ -62.540429004516525, -31.656045795790646 ], [ -62.540489203309903, -31.656036171757329 ], [ -62.540584024375192, -31.656021012569596 ], [ -62.540594071351556, -31.656019406339801 ], [ -62.540598930541869, -31.656018629491218 ], [ -62.540601861369943, -31.656018160933716 ], [ -62.540608968031464, -31.656017024776837 ], [ -62.540650253666669, -31.656010424347354 ], [ -62.540721005839309, -31.655999113001467 ], [ -62.540737903554302, -31.655996411510735 ], [ -62.540741216339519, -31.65599588188508 ], [ -62.540745734582423, -31.655995159538868 ], [ -62.540746825413585, -31.655994985144105 ], [ -62.540749112788511, -31.655994619453946 ], [ -62.540827195219499, -31.655982136132053 ], [ -62.540903198163782, -31.655969985216061 ], [ -62.540970098722134, -31.655959289497279 ], [ -62.541007842318564, -31.655953255227711 ], [ -62.541010332471629, -31.655952857113267 ], [ -62.541013506569108, -31.655952349652818 ], [ -62.541015123078544, -31.655952091212502 ], [ -62.541060080127011, -31.655944903671603 ], [ -62.541074800753535, -31.655942550197025 ], [ -62.54107773923117, -31.65594208040481 ], [ -62.541086805257642, -31.655940630963819 ], [ -62.541088353355129, -31.65594038345996 ], [ -62.54119294792843, -31.655923661235736 ], [ -62.541220883781563, -31.655919194931098 ], [ -62.541241195296934, -31.655915947579757 ], [ -62.541249901659, -31.655914555628556 ], [ -62.541254998280785, -31.655913740793224 ], [ -62.54125917708577, -31.655913072696038 ], [ -62.541259177179484, -31.655913072681056 ], [ -62.541259178620862, -31.655913072450605 ], [ -62.541259215462652, -31.655913066560426 ], [ -62.54126015797349, -31.655912915874069 ], [ -62.541320155422603, -31.655903323610826 ], [ -62.54133523072651, -31.655900913398874 ], [ -62.541394038964306, -31.655891511227367 ], [ -62.541452426803268, -31.655882176239832 ], [ -62.54145562052944, -31.655881665629352 ], [ -62.54145697017146, -31.655881449849602 ], [ -62.54145725788679, -31.655881403849882 ], [ -62.541457374633133, -31.655881385184575 ], [ -62.541465205540717, -31.655880133184624 ], [ -62.541467375618765, -31.655879786233999 ], [ -62.541468890141871, -31.655879544093036 ], [ -62.541477813020059, -31.655878117508717 ], [ -62.541556905552397, -31.655865472213584 ], [ -62.541599961245637, -31.655858588457548 ], [ -62.541607522516784, -31.655857379557837 ], [ -62.541608698083216, -31.655857191607666 ], [ -62.541615836351752, -31.655856050337299 ], [ -62.541626277773588, -31.655854380956168 ], [ -62.541645917328587, -31.655851240969231 ], [ -62.541652134509484, -31.655850246960942 ], [ -62.541655463138234, -31.655849714776778 ], [ -62.541656433205084, -31.655849559681577 ], [ -62.54172797871815, -31.655838120896963 ], [ -62.541794207757619, -31.655827532078316 ], [ -62.541858079426319, -31.655817320125482 ], [ -62.541877012623516, -31.655814293034727 ], [ -62.541938714194934, -31.655804427999776 ], [ -62.542002049749023, -31.655794301685422 ], [ -62.542098687049929, -31.655778850904028 ], [ -62.542164201229561, -31.655768376174578 ], [ -62.542263008555686, -31.655752578304799 ], [ -62.542329237477297, -31.655741989207236 ], [ -62.542396002467527, -31.655731314362328 ], [ -62.542418793544151, -31.655727670359973 ], [ -62.54248338843874, -31.65571734243683 ], [ -62.542546723878068, -31.655707215850914 ], [ -62.542640467571061, -31.655692227283865 ], [ -62.542668811845076, -31.655687695337239 ], [ -62.542669103887469, -31.655687648642726 ], [ -62.542670031516842, -31.655687500324593 ], [ -62.542671170589287, -31.655687318198922 ], [ -62.542702123722989, -31.655682369115148 ], [ -62.542863971061649, -31.65565649127992 ], [ -62.542864027040991, -31.655645055986561 ], [ -62.542864048366447, -31.655640699684323 ], [ -62.542873569056297, -31.655635016037561 ], [ -62.542886241983233, -31.655631794143002 ], [ -62.54290840361076, -31.65562942305116 ], [ -62.542925279521349, -31.655629483489097 ], [ -62.542947548379189, -31.655605203370751 ], [ -62.542960364271146, -31.655572769442294 ], [ -62.542970135142653, -31.655515964741376 ], [ -62.542970347086879, -31.655472659069712 ], [ -62.542980117941056, -31.655415854366993 ], [ -62.542992933794892, -31.655383420433946 ], [ -62.543015202575802, -31.655359140302131 ], [ -62.54303207843779, -31.655359200725478 ], [ -62.54305438693472, -31.655326800772865 ], [ -62.54306725572463, -31.655283540413137 ], [ -62.543077119201598, -31.655207789468111 ], [ -62.543077401724268, -31.655150048568835 ], [ -62.543087265177519, -31.655074297621226 ], [ -62.543100133915928, -31.655031037255998 ], [ -62.543122442309532, -31.654998637288855 ], [ -62.543139318106618, -31.654998697697422 ], [ -62.543161586756767, -31.654974417537389 ], [ -62.543174402485235, -31.654941983582699 ], [ -62.543184173155794, -31.654885178857946 ], [ -62.543184384995556, -31.654841873180697 ], [ -62.543194155648791, -31.654785068454128 ], [ -62.543206971339153, -31.654752634494866 ], [ -62.543229239912357, -31.654728354321357 ], [ -62.54324611566085, -31.654728414715347 ], [ -62.543268423930485, -31.654696014719985 ], [ -62.543281292530807, -31.654652754332645 ], [ -62.543291155761125, -31.654577003361336 ], [ -62.543291438144514, -31.654519262454617 ], [ -62.543272823612192, -31.654443409577723 ], [ -62.54324772187335, -31.654400013311285 ], [ -62.543203582059569, -31.654367375513875 ], [ -62.543169830693294, -31.65436725471362 ], [ -62.543125571749655, -31.654358976334734 ], [ -62.543100311196113, -31.654348059299892 ], [ -62.543081418755634, -31.654329045100464 ], [ -62.543081489383283, -31.654314609873687 ], [ -62.543072089517679, -31.654295629655348 ], [ -62.543059485738482, -31.654284757923257 ], [ -62.5430373761562, -31.654276558809229 ], [ -62.543020500489845, -31.654276498388406 ], [ -62.542998390913034, -31.654268299267681 ], [ -62.542985787146151, -31.654257427528378 ], [ -62.542976387305686, -31.654238447303051 ], [ -62.542976457949329, -31.654224012076288 ], [ -62.542967058114044, -31.654205031850221 ], [ -62.542954454359304, -31.65419416010786 ], [ -62.542932344807831, -31.654185960975799 ], [ -62.542915469158089, -31.654185900541247 ], [ -62.54289335961208, -31.654177701402489 ], [ -62.54288075586966, -31.654166829652894 ], [ -62.542871356059528, -31.654147849419864 ], [ -62.542871426719152, -31.654133414193101 ], [ -62.542862026914193, -31.654114433959325 ], [ -62.542849423183903, -31.654103562206664 ], [ -62.542827313663231, -31.654095363056587 ], [ -62.542810438030116, -31.65409530260829 ], [ -62.542788328514909, -31.654087103451523 ], [ -62.542775724796932, -31.654076231691636 ], [ -62.542766325017126, -31.654057251450883 ], [ -62.542766395692745, -31.65404281622412 ], [ -62.542756995918118, -31.654023835982642 ], [ -62.542744392212278, -31.654012964219667 ], [ -62.542722282722409, -31.654004765051578 ], [ -62.542705407105906, -31.654004704589553 ], [ -62.542683297621501, -31.653996505414764 ], [ -62.542670693927988, -31.653985633644592 ], [ -62.542661294178515, -31.653966653396111 ], [ -62.542661364870106, -31.653952218169366 ], [ -62.542642472598878, -31.653933203905375 ], [ -62.542617212217571, -31.653922286775842 ], [ -62.542572953535775, -31.653914008207181 ], [ -62.542539202336322, -31.653913887241732 ], [ -62.542494943665758, -31.653905608646127 ], [ -62.542469683309498, -31.653894691487562 ], [ -62.542450791089159, -31.653875677195519 ], [ -62.54245086181303, -31.653861241968997 ], [ -62.542441462120635, -31.653842261704504 ], [ -62.542428858476171, -31.653831389910653 ], [ -62.542406749057498, -31.653823190688342 ], [ -62.542389873474548, -31.653823130184904 ], [ -62.542367764061339, -31.653814930955889 ], [ -62.542355160429189, -31.653804059154819 ], [ -62.54234576076194, -31.653785078883342 ], [ -62.542345831501812, -31.653770643656834 ], [ -62.542336431839736, -31.653751663384632 ], [ -62.542323828219722, -31.653740791580482 ], [ -62.542301718831851, -31.653732592340152 ], [ -62.542284843265527, -31.653732531822978 ], [ -62.542262733883113, -31.653724332575944 ], [ -62.542250130275427, -31.653713460764585 ], [ -62.542240730638504, -31.653694480485406 ], [ -62.542240801394342, -31.653680045258884 ], [ -62.542231401762599, -31.653661064978969 ], [ -62.542218798167035, -31.653650193164534 ], [ -62.542196688809973, -31.653641993906174 ], [ -62.542179813260269, -31.653641933375276 ], [ -62.542157743715954, -31.653625614295326 ], [ -62.54214519321161, -31.653603916053804 ], [ -62.542135886494783, -31.653565989532019 ], [ -62.542136028038129, -31.653537119078816 ], [ -62.542126721331343, -31.65349919255609 ], [ -62.542114170850837, -31.653477494311311 ], [ -62.542092101356637, -31.65346117522007 ], [ -62.542075225839838, -31.653461114675643 ], [ -62.542053116540259, -31.653452915392727 ], [ -62.542040512993459, -31.653442043560794 ], [ -62.542031113425942, -31.653423063266029 ], [ -62.542031184213442, -31.65340862803933 ], [ -62.542021784651098, -31.653389647743836 ], [ -62.542009181116427, -31.653378775908809 ], [ -62.541987071842186, -31.653370576614577 ], [ -62.541970196342021, -31.65337051605643 ], [ -62.541948087073237, -31.653362316755487 ], [ -62.541935483550894, -31.653351444913262 ], [ -62.541926084013703, -31.653332464610777 ], [ -62.541926154817183, -31.653318029384089 ], [ -62.541916755285172, -31.653299049080871 ], [ -62.541904151774951, -31.653288177235559 ], [ -62.541882042531512, -31.653279977923308 ], [ -62.541865167047959, -31.653279917351419 ], [ -62.541843057809977, -31.653271718032475 ], [ -62.541830454312084, -31.653260846179943 ], [ -62.541821054805219, -31.653241865869756 ], [ -62.541821125624686, -31.65322743064306 ], [ -62.541802233670865, -31.653208416255563 ], [ -62.541776973584874, -31.653197498961269 ], [ -62.541732715324002, -31.653189220104281 ], [ -62.541698964390463, -31.65318909891911 ], [ -62.541654706140825, -31.653180820035175 ], [ -62.541629446079888, -31.65316990271187 ], [ -62.541610554176941, -31.653150888296306 ], [ -62.541610625028696, -31.653136453069834 ], [ -62.541601225578901, -31.653117472743627 ], [ -62.541588622130057, -31.653106600867428 ], [ -62.541566512957807, -31.653098401500955 ], [ -62.541549637507821, -31.653098340887666 ], [ -62.541527528341035, -31.6530901415145 ], [ -62.541514924904497, -31.653079269631093 ], [ -62.541505525479856, -31.653060289297894 ], [ -62.541505596347591, -31.653045854071436 ], [ -62.541458227195164, -31.653026737333843 ], [ -62.541394997471009, -31.653015683549576 ], [ -62.541284292314351, -31.653007165771601 ], [ -62.541199915150642, -31.653006862497087 ], [ -62.541089130225963, -31.653014584179108 ], [ -62.541025794143422, -31.653025183050811 ], [ -62.540978238860433, -31.653043958602936 ], [ -62.540978167911206, -31.653058393828317 ], [ -62.540949597477173, -31.653077237644169 ], [ -62.540911574506929, -31.653087927496596 ], [ -62.540845087515834, -31.653095808292093 ], [ -62.540794461172517, -31.653095626159409 ], [ -62.540727974166842, -31.653103506893743 ], [ -62.540689951161355, -31.653114196679759 ], [ -62.540661380652786, -31.653133040430198 ], [ -62.540661309654332, -31.653147475654762 ], [ -62.540632739129812, -31.653166319398551 ], [ -62.540594716088123, -31.653177009155737 ], [ -62.540528229008913, -31.653184889785209 ], [ -62.540477602619561, -31.653184707526378 ], [ -62.540411115525771, -31.65319258809469 ], [ -62.540373092448839, -31.653203277785476 ], [ -62.540344521849789, -31.65322212146387 ], [ -62.540344450802102, -31.653236556687574 ], [ -62.540296895277251, -31.653255331982873 ], [ -62.540233558946284, -31.653265930458634 ], [ -62.540122773645017, -31.653273651297855 ], [ -62.540038396254303, -31.653273347253222 ], [ -62.539927610930299, -31.653281067922787 ], [ -62.53986427454231, -31.653291666214695 ], [ -62.539816718895047, -31.653310441329733 ], [ -62.539816647765548, -31.653324876552158 ], [ -62.539769092091952, -31.653343651649127 ], [ -62.539705755644455, -31.65335424986166 ], [ -62.539594970200653, -31.653361970241232 ], [ -62.539510592736413, -31.653361665846919 ], [ -62.539399887363182, -31.653353146432654 ], [ -62.539336657675449, -31.653342091629444 ], [ -62.539289288828016, -31.65332297409056 ], [ -62.539289360039035, -31.653308538869197 ], [ -62.5392514836754, -31.653289455579962 ], [ -62.539200910656909, -31.653278446398275 ], [ -62.539112354475165, -31.653270006698129 ], [ -62.539044852574719, -31.653269762932542 ], [ -62.538956296416714, -31.65326132312434 ], [ -62.538905723449744, -31.653250313826099 ], [ -62.538867847189444, -31.65323123042382 ], [ -62.538867918465343, -31.653216795203086 ], [ -62.538839534673521, -31.653197746087297 ], [ -62.538801618349801, -31.653186782477182 ], [ -62.538735211332835, -31.653178422547956 ], [ -62.538684584959768, -31.653178239577979 ], [ -62.538618177960146, -31.65316987958801 ], [ -62.538580261674547, -31.653158915912439 ], [ -62.538551877959677, -31.653139866733227 ], [ -62.538551949284148, -31.65312543151294 ], [ -62.538523565585216, -31.653106382327483 ], [ -62.538485649336771, -31.653095418624055 ], [ -62.53841924241511, -31.653087058531192 ], [ -62.53836861609382, -31.653086875436365 ], [ -62.538302128906167, -31.65309475490514 ], [ -62.53826410563601, -31.653105443965863 ], [ -62.538235534647768, -31.653124287168666 ], [ -62.538235463274376, -31.653138722388306 ], [ -62.538225877154531, -31.653157634271537 ], [ -62.538213167032261, -31.653168414895092 ], [ -62.538190977846533, -31.653176454568587 ], [ -62.538174102390435, -31.653176393508858 ], [ -62.538151913199535, -31.653184433175504 ], [ -62.538139203065136, -31.653195213791538 ], [ -62.538129616919939, -31.653214125667144 ], [ -62.538129545529934, -31.653228560886358 ], [ -62.53811995937928, -31.653247472761088 ], [ -62.538107249232553, -31.653258253373703 ], [ -62.538085060016492, -31.653266293028381 ], [ -62.538068184544429, -31.653266231954504 ], [ -62.538045995323195, -31.653274271602331 ], [ -62.538033285164346, -31.653285052207426 ], [ -62.538023698988347, -31.65330396407451 ], [ -62.538023627581715, -31.653318399293308 ], [ -62.53801404140026, -31.653337311159536 ], [ -62.538001331229083, -31.653348091761202 ], [ -62.53797914198271, -31.653356131397068 ], [ -62.537962266494652, -31.653356070309027 ], [ -62.537940077243107, -31.653364109938039 ], [ -62.537927367059801, -31.653374890532199 ], [ -62.537917780852993, -31.653393802390784 ], [ -62.537917709429742, -31.653408237609156 ], [ -62.537908123217491, -31.65342714946685 ], [ -62.537895413021857, -31.653437930057603 ], [ -62.537873223745152, -31.653445969674642 ], [ -62.537856348241121, -31.653445908572447 ], [ -62.537834158959235, -31.65345394818263 ], [ -62.53782144875148, -31.653464728765861 ], [ -62.53781186251387, -31.653483640615928 ], [ -62.537811791074006, -31.653498075833888 ], [ -62.537802204830939, -31.653516987683066 ], [ -62.537789494610855, -31.65352776826288 ], [ -62.537767305303838, -31.653535807861093 ], [ -62.537750429783827, -31.653535746744755 ], [ -62.537728160087028, -31.653560025955976 ], [ -62.537715342670033, -31.653592459354563 ], [ -62.537705568823846, -31.653649263641697 ], [ -62.537705354453415, -31.653692569293707 ], [ -62.537695580589876, -31.653749373579021 ], [ -62.537682763134768, -31.653781806973015 ], [ -62.537660493361024, -31.653806086170775 ], [ -62.537643617792426, -31.653806025039835 ], [ -62.537621428406744, -31.653814064611577 ], [ -62.537608718125149, -31.653824845172316 ], [ -62.537599131806751, -31.653843757004573 ], [ -62.537599060333001, -31.653858192221279 ], [ -62.537589474009131, -31.653877104052651 ], [ -62.537576763715222, -31.653887884609961 ], [ -62.537554574304387, -31.653895924169756 ], [ -62.537537698719824, -31.653895863024662 ], [ -62.537515509303809, -31.6539039025776 ], [ -62.537502798997764, -31.6539146831274 ], [ -62.537493212648556, -31.653933594951138 ], [ -62.53749314115818, -31.653948030167424 ], [ -62.537464569756629, -31.653966873191198 ], [ -62.537426546037466, -31.65397756199663 ], [ -62.537360058141644, -31.653985440966711 ], [ -62.537309431340937, -31.653985257447115 ], [ -62.537243023900857, -31.653976896738399 ], [ -62.537205107455634, -31.653965932654092 ], [ -62.537176723782132, -31.653946883171795 ], [ -62.537176795321407, -31.653932447956144 ], [ -62.537167396699033, -31.653913467313604 ], [ -62.537154793665856, -31.653902595004837 ], [ -62.537132684705398, -31.653894394873255 ], [ -62.537115809122099, -31.653894333672387 ], [ -62.537093700167091, -31.653886133534094 ], [ -62.537081097146242, -31.653875261218111 ], [ -62.537071698548999, -31.653856280568601 ], [ -62.537071770104269, -31.653841845352961 ], [ -62.537043386495739, -31.653822795841268 ], [ -62.537005470137053, -31.653811831698228 ], [ -62.536939062849385, -31.653803470832543 ], [ -62.536888436150342, -31.653803287146928 ], [ -62.536822028880003, -31.653794926220499 ], [ -62.536784112559445, -31.653783962012 ], [ -62.536755729027874, -31.653764912436891 ], [ -62.536755800631724, -31.653750477221685 ], [ -62.536747740911373, -31.653731501407833 ], [ -62.536736923015958, -31.653720635537123 ], [ -62.536717937997899, -31.653712446672614 ], [ -62.536703442533707, -31.653712394056647 ], [ -62.536665391940396, -31.653712255931964 ], [ -62.536678049331265, -31.653767261230819 ], [ -62.536692840376134, -31.65383153868062 ], [ -62.536697050334119, -31.653849833880681 ], [ -62.536698657620533, -31.653856818657843 ], [ -62.536700299815529, -31.653863955136085 ], [ -62.536713598082692, -31.653921745305905 ], [ -62.536731553593725, -31.653999774308812 ], [ -62.536736896219701, -31.654022991655651 ], [ -62.536737770053051, -31.654026789055319 ], [ -62.536738231972656, -31.65402879640973 ], [ -62.536740130819304, -31.654037048187252 ], [ -62.536742196002898, -31.654046022810082 ], [ -62.536743250904316, -31.654050607071198 ], [ -62.536744058650257, -31.654054117274132 ], [ -62.536745039547355, -31.654058379935691 ], [ -62.536746817961031, -31.654066108345358 ], [ -62.536750846499132, -31.654083615062067 ], [ -62.536751041421745, -31.654084462132179 ], [ -62.536751074624995, -31.65408460642271 ], [ -62.536751131060932, -31.654084851674863 ], [ -62.536751164877224, -31.654084998629504 ], [ -62.536751738076013, -31.654087489564411 ], [ -62.536756266912214, -31.654107170404579 ], [ -62.53675697366679, -31.654110241727953 ], [ -62.536757514777463, -31.654112593217185 ], [ -62.536758899397633, -31.654118610320957 ], [ -62.53676175714525, -31.654131029149696 ], [ -62.536769544529356, -31.654164870536167 ], [ -62.536772656787775, -31.654178395371371 ] ] ] ] } },
{ "type": "Feature", "properties": { "zona": "7", "zona_id": "7" }, "geometry": { "type": "Polygon", "coordinates": [ [ [ -62.538706729279383, -31.651201437008886 ], [ -62.538465259159615, -31.650933534405141 ], [ -62.538345697805042, -31.650562227433113 ], [ -62.538572023229122, -31.650385025993522 ], [ -62.539023792926528, -31.650208638528461 ], [ -62.538834423313197, -31.649926089753684 ], [ -62.538366192556623, -31.649924397203968 ], [ -62.538208942143832, -31.650161188157885 ], [ -62.53787922543161, -31.650204499817708 ], [ -62.537375354283846, -31.650395529376464 ], [ -62.537269906105045, -31.650677011827767 ], [ -62.537302385429292, -31.651122179042247 ], [ -62.537491018135029, -31.651553077166838 ], [ -62.537749095021496, -31.651969391529967 ], [ -62.538182504764158, -31.65200063038154 ], [ -62.538823729063921, -31.652091958723901 ], [ -62.539656012456533, -31.652124633149647 ], [ -62.539916804531998, -31.651992058627442 ], [ -62.540420241280806, -31.651890027438156 ], [ -62.540750400533298, -31.651757700944373 ], [ -62.540248644415811, -31.651518534880108 ], [ -62.539815309218675, -31.651472468336966 ], [ -62.539158795481363, -31.65096571024608 ], [ -62.538828343847008, -31.651157371519179 ], [ -62.538706729279383, -31.651201437008886 ] ] ] } },
{ "type": "Feature", "properties": { "zona": "9", "zona_id": "9" }, "geometry": { "type": "MultiPolygon", "coordinates": [ [ [ [ -62.544536067273732, -31.654298155668446 ], [ -62.544548618427861, -31.654319853678633 ], [ -62.544557926198003, -31.654357780029972 ], [ -62.54455778539883, -31.654386650489226 ], [ -62.544567093179012, -31.654424576839602 ], [ -62.544579644357, -31.654446274846539 ], [ -62.544601714522045, -31.65446259351144 ], [ -62.544618590225738, -31.654462653723506 ], [ -62.544640581216015, -31.654495212014947 ], [ -62.544653026842511, -31.654538562858857 ], [ -62.544662149917649, -31.654614381678904 ], [ -62.544661868380722, -31.654672122595777 ], [ -62.544652006249876, -31.654747873682293 ], [ -62.54463913826909, -31.654791134213081 ], [ -62.544616830448795, -31.654823534451818 ], [ -62.544599954679882, -31.654823474238899 ], [ -62.544577646838206, -31.654855874470435 ], [ -62.544564778807533, -31.654899134992508 ], [ -62.544554916571684, -31.654974886067862 ], [ -62.544554634964506, -31.655032626980628 ], [ -62.544544772704938, -31.655108378053406 ], [ -62.544531904622779, -31.655151638570004 ], [ -62.544509596677791, -31.655184038787009 ], [ -62.544492720843984, -31.655183978559293 ], [ -62.544470474950394, -31.655203653784252 ], [ -62.544457689586359, -31.655229947645918 ], [ -62.544447972069499, -31.655276007077116 ], [ -62.544447800750483, -31.655311125791485 ], [ -62.544447351036666, -31.655403312415796 ], [ -62.544479502551781, -31.655398171243256 ], [ -62.544484395728759, -31.655397388801379 ], [ -62.544519178732656, -31.655391826830687 ], [ -62.54461928907056, -31.655375818646299 ], [ -62.544986700210551, -31.655317066896433 ], [ -62.54517307995215, -31.655287262968049 ], [ -62.54527748603121, -31.655270567295808 ], [ -62.545321178541329, -31.655263580359087 ], [ -62.545373200387225, -31.655255261444527 ], [ -62.545176718893003, -31.654503187469174 ], [ -62.54496947333832, -31.654324428995558 ], [ -62.544454766539182, -31.65424727752724 ], [ -62.544462407835645, -31.654262706305381 ], [ -62.54447501177701, -31.654273577900486 ], [ -62.544497121488014, -31.654281776766645 ], [ -62.544513997158802, -31.654281836992237 ], [ -62.544536067273732, -31.654298155668446 ] ] ], [ [ [ -62.541505596347591, -31.653045854071443 ], [ -62.541505525479856, -31.653060289297894 ], [ -62.541511532141861, -31.653072418599365 ], [ -62.541514924904497, -31.6530792696311 ], [ -62.541527528341035, -31.6530901415145 ], [ -62.541549637507821, -31.653098340887681 ], [ -62.541566512957807, -31.653098401500955 ], [ -62.541588622130057, -31.653106600867414 ], [ -62.541601225578901, -31.653117472743627 ], [ -62.541610625028696, -31.653136453069841 ], [ -62.541610554176941, -31.653150888296306 ], [ -62.541629446079888, -31.653169902711877 ], [ -62.541654706140825, -31.653180820035175 ], [ -62.541698964390463, -31.653189098919125 ], [ -62.541732715324002, -31.65318922010426 ], [ -62.541776973584874, -31.653197498961262 ], [ -62.541802233670865, -31.653208416255563 ], [ -62.541821125624686, -31.653227430643074 ], [ -62.541821054805219, -31.653241865869756 ], [ -62.541830454312084, -31.653260846179951 ], [ -62.541843057809977, -31.653271718032475 ], [ -62.541865167047959, -31.65327991735143 ], [ -62.541882042531512, -31.653279977923301 ], [ -62.541904151774951, -31.653288177235552 ], [ -62.541916755285172, -31.653299049080871 ], [ -62.541926154817183, -31.653318029384096 ], [ -62.541926084013703, -31.653332464610777 ], [ -62.541935483550894, -31.65335144491327 ], [ -62.541948087073237, -31.653362316755487 ], [ -62.541970196342021, -31.653370516056437 ], [ -62.541987071842186, -31.653370576614574 ], [ -62.542009181116427, -31.653378775908802 ], [ -62.542021784651098, -31.653389647743836 ], [ -62.542031184213442, -31.653408628039337 ], [ -62.542031113425942, -31.653423063266029 ], [ -62.542040512993459, -31.653442043560801 ], [ -62.542053116540259, -31.653452915392727 ], [ -62.542075225839838, -31.653461114675654 ], [ -62.542092101356637, -31.653461175220059 ], [ -62.542114170850837, -31.653477494311311 ], [ -62.542126721331343, -31.65349919255609 ], [ -62.542136028038129, -31.653537119078823 ], [ -62.542135886494783, -31.653565989532019 ], [ -62.54214519321161, -31.653603916053804 ], [ -62.542157743715954, -31.653625614295326 ], [ -62.542179813260269, -31.653641933375287 ], [ -62.542196688809973, -31.65364199390616 ], [ -62.542218798167035, -31.653650193164527 ], [ -62.542231401762599, -31.653661064978969 ], [ -62.542240801394342, -31.653680045258891 ], [ -62.542240730638504, -31.653694480485406 ], [ -62.542250130275427, -31.653713460764592 ], [ -62.542262733883113, -31.653724332575944 ], [ -62.542284843265527, -31.653732531822993 ], [ -62.542301718831851, -31.653732592340138 ], [ -62.542323828219722, -31.653740791580471 ], [ -62.542336431839736, -31.653751663384632 ], [ -62.542345831501812, -31.653770643656841 ], [ -62.54234576076194, -31.653785078883342 ], [ -62.542355160429189, -31.653804059154826 ], [ -62.542367764061339, -31.653814930955889 ], [ -62.542389873474548, -31.653823130184911 ], [ -62.542406749057498, -31.653823190688328 ], [ -62.542428858476171, -31.653831389910636 ], [ -62.542441462120635, -31.653842261704504 ], [ -62.54245086181303, -31.653861241969 ], [ -62.542450791089159, -31.653875677195519 ], [ -62.542469683309498, -31.653894691487572 ], [ -62.542494943665758, -31.653905608646127 ], [ -62.542539202336322, -31.653913887241732 ], [ -62.542572953535775, -31.653914008207177 ], [ -62.542617212217571, -31.653922286775828 ], [ -62.542642472598878, -31.653933203905375 ], [ -62.542661364870106, -31.653952218169373 ], [ -62.542661294178515, -31.653966653396111 ], [ -62.542670693927988, -31.653985633644599 ], [ -62.542683297621501, -31.653996505414764 ], [ -62.542705407105906, -31.654004704589564 ], [ -62.542722282722409, -31.654004765051575 ], [ -62.542744392212278, -31.654012964219664 ], [ -62.542756995918118, -31.654023835982642 ], [ -62.542766395692745, -31.654042816224127 ], [ -62.542766325017126, -31.654057251450883 ], [ -62.542775724796932, -31.654076231691647 ], [ -62.542788328514909, -31.654087103451523 ], [ -62.542810438030116, -31.654095302608297 ], [ -62.542827313663231, -31.654095363056577 ], [ -62.542849423183903, -31.65410356220665 ], [ -62.542862026914193, -31.654114433959325 ], [ -62.542871426719152, -31.654133414193112 ], [ -62.542871356059528, -31.654147849419864 ], [ -62.54288075586966, -31.654166829652912 ], [ -62.54289335961208, -31.654177701402489 ], [ -62.542915469158089, -31.654185900541254 ], [ -62.542932344807831, -31.654185960975788 ], [ -62.542954454359304, -31.654194160107846 ], [ -62.542967058114044, -31.654205031850221 ], [ -62.542976457949329, -31.654224012076295 ], [ -62.542976387305686, -31.654238447303051 ], [ -62.542985787146151, -31.654257427528382 ], [ -62.542998390913034, -31.654268299267681 ], [ -62.543020500489845, -31.654276498388413 ], [ -62.5430373761562, -31.654276558809229 ], [ -62.543059485738482, -31.654284757923257 ], [ -62.543072089517679, -31.654295629655348 ], [ -62.543081489383283, -31.654314609873687 ], [ -62.543081418755634, -31.654329045100464 ], [ -62.543100311196113, -31.654348059299899 ], [ -62.543125571749655, -31.654358976334734 ], [ -62.543169830693294, -31.654367254713641 ], [ -62.543203582059569, -31.654367375513861 ], [ -62.543247721873364, -31.654400013311285 ], [ -62.543272823612192, -31.654443409577713 ], [ -62.543291438144514, -31.654519262454617 ], [ -62.543291155761125, -31.654577003361336 ], [ -62.543281292530807, -31.654652754332645 ], [ -62.543268423930485, -31.654696014719999 ], [ -62.54324611566085, -31.654728414715358 ], [ -62.543229239912343, -31.654728354321357 ], [ -62.543206971339153, -31.654752634494866 ], [ -62.543194155648791, -31.654785068454128 ], [ -62.543184384995556, -31.654841873180697 ], [ -62.543184173155794, -31.654885178857938 ], [ -62.543174402485235, -31.654941983582699 ], [ -62.543161586756767, -31.654974417537389 ], [ -62.543139318106618, -31.65499869769743 ], [ -62.543122442309532, -31.654998637288848 ], [ -62.543100133915928, -31.655031037255998 ], [ -62.543087265177519, -31.655074297621226 ], [ -62.543077401724268, -31.655150048568835 ], [ -62.543077119201598, -31.655207789468104 ], [ -62.54306725572463, -31.655283540413137 ], [ -62.54305438693472, -31.655326800772873 ], [ -62.54303207843779, -31.655359200725485 ], [ -62.543015202575802, -31.655359140302121 ], [ -62.542992933794892, -31.655383420433939 ], [ -62.542980117941056, -31.655415854366993 ], [ -62.542970347086879, -31.655472659069712 ], [ -62.542970135142653, -31.655515964741376 ], [ -62.542960364271146, -31.655572769442294 ], [ -62.542947548379189, -31.655605203370751 ], [ -62.542925279521349, -31.655629483489108 ], [ -62.54290840361076, -31.655629423051145 ], [ -62.542886241983233, -31.655631794142991 ], [ -62.542873569056297, -31.655635016037547 ], [ -62.542864048366447, -31.65564069968433 ], [ -62.542864027040991, -31.655645055986557 ], [ -62.542863971061649, -31.65565649127992 ], [ -62.542867645239781, -31.655655903811557 ], [ -62.542875020335281, -31.655654724599131 ], [ -62.542885696626151, -31.65565301755402 ], [ -62.542926525642606, -31.655646489344139 ], [ -62.544120106750569, -31.655455639761598 ], [ -62.544133339486208, -31.655453523824825 ], [ -62.544134318319152, -31.655453367307725 ], [ -62.54413433661734, -31.655453364381813 ], [ -62.544134337587089, -31.655453364226741 ], [ -62.5440442024478, -31.655453042253477 ], [ -62.544009865252256, -31.655452919580259 ], [ -62.543964837336425, -31.65544463874302 ], [ -62.543939137315974, -31.655433720303499 ], [ -62.543919915180425, -31.655414705051015 ], [ -62.543919985681455, -31.655400269825009 ], [ -62.543929570889809, -31.655381357511981 ], [ -62.543942280664048, -31.655370576319481 ], [ -62.543964469891399, -31.6553625356491 ], [ -62.543981345756237, -31.655362595946951 ], [ -62.544003693576201, -31.655322076010496 ], [ -62.544016614791175, -31.655267989130977 ], [ -62.544026570007347, -31.655173291870039 ], [ -62.544026922426269, -31.655101115735903 ], [ -62.544008399698534, -31.655006316730908 ], [ -62.543983350335566, -31.654952094187951 ], [ -62.543939249657328, -31.654911336827592 ], [ -62.543905498090993, -31.654911216220036 ], [ -62.543861238821655, -31.654902938093908 ], [ -62.543835978033897, -31.654892021203413 ], [ -62.5438170853336, -31.65487300711203 ], [ -62.543817155849041, -31.654858571884997 ], [ -62.543807755779881, -31.654839591720535 ], [ -62.543795151841508, -31.654828720060518 ], [ -62.543773042064821, -31.654820521072804 ], [ -62.543756166298422, -31.654820460748315 ], [ -62.543734096199273, -31.654804141938712 ], [ -62.543721545171799, -31.654782443851246 ], [ -62.543712237702024, -31.654744517444222 ], [ -62.54371237876456, -31.654715646989999 ], [ -62.543703071304819, -31.654677720582026 ], [ -62.543690520301205, -31.654656022491292 ], [ -62.543668450252149, -31.654639703670398 ], [ -62.543651574518677, -31.654639643332388 ], [ -62.543629504480364, -31.654623324504819 ], [ -62.543616953501086, -31.654601626406915 ], [ -62.543607646090948, -31.654563699991765 ], [ -62.543607787184833, -31.654534829537138 ], [ -62.543617464955737, -31.654496971008758 ], [ -62.543630227551375, -31.654475363424414 ], [ -62.543652456269811, -31.654459202989877 ], [ -62.543669331970669, -31.65445926332745 ], [ -62.543691640028925, -31.654426863254752 ], [ -62.543704508395045, -31.654383602820719 ], [ -62.543714371251241, -31.654307851809996 ], [ -62.543714653369982, -31.654250110897433 ], [ -62.543705531096762, -31.654174292012971 ], [ -62.543693085957671, -31.654130941078794 ], [ -62.543671095383985, -31.654098382626174 ], [ -62.54365421974834, -31.654098322289435 ], [ -62.543632189516046, -31.654073883646163 ], [ -62.54361969151612, -31.654041359125987 ], [ -62.543610476748078, -31.65398448647073 ], [ -62.543610688382721, -31.653941180784791 ], [ -62.543629951198987, -31.653884409956227 ], [ -62.543652444021951, -31.653855809472525 ], [ -62.543343320856671, -31.65348786221309 ], [ -62.542850256290372, -31.653241319952695 ], [ -62.542305057914184, -31.653016841328444 ], [ -62.541906363193753, -31.652978323553722 ], [ -62.541646153571072, -31.652992224360649 ], [ -62.54156803969726, -31.65300677880315 ], [ -62.541503893419694, -31.653045166822391 ], [ -62.541505596347591, -31.653045854071443 ] ] ], [ [ [ -62.541119507055512, -31.650757666971892 ], [ -62.540565656357465, -31.650533149834551 ], [ -62.54009910247521, -31.650190264974491 ], [ -62.539561941362912, -31.650099318507465 ], [ -62.539544599448398, -31.650099255949598 ], [ -62.53949242742447, -31.650128737706765 ], [ -62.539387351704029, -31.650336048374559 ], [ -62.539420865178428, -31.650573529075519 ], [ -62.539576285044269, -31.65070760466282 ], [ -62.539818196348662, -31.65088649687166 ], [ -62.540250725585572, -31.651095745324568 ], [ -62.540578985014015, -31.651349122007858 ], [ -62.541029443508911, -31.65143975248586 ], [ -62.54136025594142, -31.651173911870153 ], [ -62.541759706945143, -31.65105666667608 ], [ -62.541864414427657, -31.650923527664208 ], [ -62.541483617093412, -31.650773810448289 ], [ -62.541119507055512, -31.650757666971892 ] ] ], [ [ [ -62.545802797780446, -31.650581563031551 ], [ -62.545906633527622, -31.650626437450764 ], [ -62.546200222703462, -31.650879676428328 ], [ -62.54678891751135, -31.651074622938111 ], [ -62.546962986253263, -31.650941725962927 ], [ -62.546790861066015, -31.650674085071707 ], [ -62.546878434884896, -31.650496376080273 ], [ -62.547223891451566, -31.650408688374103 ], [ -62.547194495537759, -31.649974516453121 ], [ -62.546828784067536, -31.650006645048041 ], [ -62.546551673529507, -31.64993148595147 ], [ -62.546152737754269, -31.649944903109386 ], [ -62.545841016318668, -31.649854784413264 ], [ -62.545825044972567, -31.649572862715281 ], [ -62.545583269727786, -31.649364312304193 ], [ -62.544802889111018, -31.649361531738219 ], [ -62.544315871554488, -31.649656493878062 ], [ -62.544400988858378, -31.649983167531978 ], [ -62.544624553166486, -31.650369675077393 ], [ -62.545229211020633, -31.650846550523873 ], [ -62.545577135009182, -31.650625264808962 ], [ -62.545802797780446, -31.650581563031551 ] ] ] ] } }
]
}
