{
"type": "FeatureCollection",
"name": "La Petronila_12_B_zonas",
"crs": { "type": "name", "properties": { "name": "urn:ogc:def:crs:OGC:1.3:CRS84" } },
"features": [
{ "type": "Feature", "properties": { "zona": "7", "zona_id": "7" }, "geometry": { "type": "MultiPolygon", "coordinates": [ [ [ [ -62.538176235870388, -31.66054015549464 ], [ -62.53811014642271, -31.660249316958904 ], [ -62.538096739530417, -31.660201088244364 ], [ -62.53809163214644, -31.660182715400303 ], [ -62.538078225272862, -31.660134486683475 ], [ -62.537804980049437, -31.660133497376648 ], [ -62.537700886634532, -31.660133120343986 ], [ -62.537564223813547, -31.660140745161122 ], [ -62.537486100117206, -31.660151288648915 ], [ -62.537427453695344, -31.660170022634798 ], [ -62.537427382177405, -31.660184457836831 ], [ -62.537417795152656, -31.660203369630043 ], [ -62.537405083968409, -31.66021415015117 ], [ -62.53738289303265, -31.660222189658615 ], [ -62.53736601630515, -31.660222128479926 ], [ -62.537343825364211, -31.660230167980508 ], [ -62.537331114167827, -31.660240948494106 ], [ -62.537321527117726, -31.660259860279691 ], [ -62.537321455583154, -31.66027429548129 ], [ -62.537311868527595, -31.660293207265983 ], [ -62.537299157318898, -31.660303987776171 ], [ -62.537276966352799, -31.660312027264798 ], [ -62.537260089609312, -31.660311966071951 ], [ -62.537237898638033, -31.660320005553707 ], [ -62.537225187417199, -31.660330786056363 ], [ -62.537215600336282, -31.660349697833425 ], [ -62.537215528785083, -31.660364133034616 ], [ -62.537205941698716, -31.6603830448108 ], [ -62.537193230465547, -31.660393825310052 ], [ -62.537171039469122, -31.660401864779839 ], [ -62.537154162709655, -31.660401803572832 ], [ -62.537131971708035, -31.660409843035765 ], [ -62.537119260462731, -31.660420623527489 ], [ -62.537109673351004, -31.660439535296025 ], [ -62.537109601783179, -31.660453970496786 ], [ -62.537106787588996, -31.660472906831021 ], [ -62.537103106897192, -31.660483720075778 ], [ -62.537096719361912, -31.660491816853312 ], [ -62.537091883340786, -31.660491799311867 ], [ -62.537079188785341, -31.660491753264733 ], [ -62.537093939147617, -31.660503189159833 ], [ -62.537131653843069, -31.660532429187356 ], [ -62.537136369768824, -31.660536085420549 ], [ -62.537151640543762, -31.660547924771308 ], [ -62.537204105664699, -31.660588600664397 ], [ -62.537389689750313, -31.660687475165954 ], [ -62.537422801645576, -31.660705116295034 ], [ -62.537460388553569, -31.660725141572321 ], [ -62.537645973185008, -31.660824015704286 ], [ -62.53790701547338, -31.660873481104055 ], [ -62.53800646022917, -31.660892324925999 ], [ -62.538267502908703, -31.660941789591494 ], [ -62.538201412908144, -31.660650951115848 ], [ -62.538188824382004, -31.660595553306031 ], [ -62.538176235870388, -31.66054015549464 ] ] ], [ [ [ -62.536591581244302, -31.65994308559381 ], [ -62.536676681817745, -31.660069161667 ], [ -62.53670058357239, -31.66010457192564 ], [ -62.536709101143899, -31.660117190632263 ], [ -62.536739427449177, -31.660162118752396 ], [ -62.536794202032674, -31.660243266626697 ], [ -62.536794250399446, -31.66023351763176 ], [ -62.536794268824885, -31.660229803728903 ], [ -62.536803786166985, -31.660224963687227 ], [ -62.536816457530385, -31.660222224200051 ], [ -62.536838618596839, -31.660220215521644 ], [ -62.536855495322726, -31.660220276770058 ], [ -62.536863662083491, -31.660217318091835 ], [ -62.536877686302248, -31.660212237354767 ], [ -62.536890397546429, -31.660201456886746 ], [ -62.536899984677291, -31.660182545134163 ], [ -62.536900056276771, -31.660168109933206 ], [ -62.536909643402161, -31.660149198179759 ], [ -62.536922354634015, -31.660138417708335 ], [ -62.536944545588383, -31.660130378281046 ], [ -62.536961422298326, -31.660130439515306 ], [ -62.536969313404711, -31.660127580691356 ], [ -62.536983613247472, -31.6601224000812 ], [ -62.536996324467204, -31.660111619602233 ], [ -62.537005911567242, -31.660092707841144 ], [ -62.537005983150095, -31.660078272639755 ], [ -62.53701557024467, -31.660059360877796 ], [ -62.537028281452073, -31.660048580395433 ], [ -62.537050472376116, -31.660040540949332 ], [ -62.537067349070021, -31.660040602169428 ], [ -62.537075240165656, -31.660037743338791 ], [ -62.537089539988884, -31.660032562716491 ], [ -62.537102251184145, -31.66002178222659 ], [ -62.537111838253374, -31.660002870456982 ], [ -62.537111909819593, -31.659988435255169 ], [ -62.537121496883358, -31.659969523484691 ], [ -62.537134208066298, -31.659958742991392 ], [ -62.537156398959993, -31.659950703526476 ], [ -62.537173275637933, -31.659950764732397 ], [ -62.537185582161229, -31.659941819421086 ], [ -62.537195506775085, -31.659934605459451 ], [ -62.537208271608094, -31.659912998556965 ], [ -62.537217952553227, -31.659875140575775 ], [ -62.537218095652086, -31.659846270171116 ], [ -62.537208790352111, -31.659808343340242 ], [ -62.537198750223432, -31.659790984376997 ], [ -62.537196240191832, -31.659786644636071 ], [ -62.537193875537852, -31.65978489607215 ], [ -62.537174170091404, -31.659770324704454 ], [ -62.537165731768738, -31.659770294101975 ], [ -62.537157293446086, -31.659770263498952 ], [ -62.537135223356394, -31.659753943560673 ], [ -62.537122673220459, -31.659732244849319 ], [ -62.537113367970086, -31.65969431801128 ], [ -62.53711351110028, -31.659665447606223 ], [ -62.537066233466497, -31.659627383031442 ], [ -62.537003053517651, -31.659605500643053 ], [ -62.536892381280786, -31.659588859192027 ], [ -62.53685018975127, -31.659588706081696 ], [ -62.536807998222073, -31.659588552957441 ], [ -62.536697205168039, -31.659596270740934 ], [ -62.536633864141336, -31.659606867374695 ], [ -62.536586304627335, -31.659625641230463 ], [ -62.536586232980859, -31.659640076432002 ], [ -62.536580727933696, -31.659659002985556 ], [ -62.536573459515843, -31.659669803188365 ], [ -62.536560793518433, -31.659677877141178 ], [ -62.536551173941234, -31.659677842208549 ], [ -62.536525922551171, -31.659677750506912 ], [ -62.536553499157982, -31.659789191248429 ], [ -62.536564004548886, -31.659831644862319 ], [ -62.536591581244302, -31.65994308559381 ] ] ], [ [ [ -62.53610078111052, -31.657879892884846 ], [ -62.53611852674014, -31.657871837437391 ], [ -62.536079013370362, -31.657871693811032 ], [ -62.536088398289927, -31.657909621021265 ], [ -62.536092172981583, -31.657890688194065 ], [ -62.53610078111052, -31.657879892884846 ] ] ], [ [ [ -62.53617679264827, -31.656971693361282 ], [ -62.535870428006703, -31.657028731262802 ], [ -62.535953340683349, -31.657363810680064 ], [ -62.535984926617495, -31.657491459964596 ], [ -62.535992359495879, -31.657521498652017 ], [ -62.536027388874622, -31.657663063543314 ], [ -62.536052419255896, -31.657764219033496 ], [ -62.536072532869426, -31.657845504189631 ], [ -62.536073873098246, -31.657850920452027 ], [ -62.536074320593464, -31.657852728912808 ], [ -62.536085134131461, -31.657862242140197 ], [ -62.536097764459157, -31.657867701719134 ], [ -62.53611852674014, -31.657871837437391 ], [ -62.536126053096346, -31.657871864793378 ], [ -62.536133579452567, -31.657871892148954 ], [ -62.536153376473614, -31.65786384415259 ], [ -62.536164719786989, -31.657853058779811 ], [ -62.53617328104928, -31.657834143345973 ], [ -62.536173352754538, -31.657819708141165 ], [ -62.536182939779032, -31.657800796434472 ], [ -62.536195650770594, -31.657790016029203 ], [ -62.536217841225067, -31.657781976720578 ], [ -62.536226279366915, -31.657782007384 ], [ -62.536234717508769, -31.657782038046882 ], [ -62.536256907958077, -31.657773998731415 ], [ -62.536269618937503, -31.657763218318618 ], [ -62.536279205936651, -31.657744306604268 ], [ -62.536279277625269, -31.657729871399052 ], [ -62.53628886461896, -31.657710959683826 ], [ -62.536301575586059, -31.657700179267632 ], [ -62.536323766010213, -31.657692139940192 ], [ -62.536332204144074, -31.657692170596537 ], [ -62.536340642277942, -31.657692201252338 ], [ -62.536362832696909, -31.657684161918048 ], [ -62.536375543651879, -31.657673381494302 ], [ -62.536385130620197, -31.657654469771444 ], [ -62.536385202292202, -31.657640034565802 ], [ -62.536385336677078, -31.657612968555163 ], [ -62.536385444184837, -31.657591315746544 ], [ -62.53638557856938, -31.657564249735685 ], [ -62.536385650241058, -31.65754981452983 ], [ -62.536395237194341, -31.657530902805714 ], [ -62.536407948124513, -31.657520122378251 ], [ -62.536430138496755, -31.657512083031598 ], [ -62.53644701473219, -31.65751214432936 ], [ -62.536455181267556, -31.657509185673867 ], [ -62.536469205099252, -31.65750410497585 ], [ -62.536481916017287, -31.657493324540855 ], [ -62.536491502945218, -31.657474412809091 ], [ -62.536491574600277, -31.65745997760283 ], [ -62.536501161522736, -31.657441065870184 ], [ -62.536513872428458, -31.657430285431786 ], [ -62.536536062770367, -31.657422246066304 ], [ -62.536552938989821, -31.657422307349904 ], [ -62.536567651839583, -31.657391037982691 ], [ -62.536575325558751, -31.657374728941189 ], [ -62.536588298081902, -31.657311229779371 ], [ -62.536598342819076, -31.65720006028468 ], [ -62.536598763293178, -31.657115333454399 ], [ -62.53659986702926, -31.656892925519553 ], [ -62.536524473429722, -31.656906962386575 ], [ -62.53629350289188, -31.656949964442369 ], [ -62.53617679264827, -31.656971693361282 ] ] ] ] } },
{ "type": "Feature", "properties": { "zona": "6", "zona_id": "6" }, "geometry": { "type": "MultiPolygon", "coordinates": [ [ [ [ -62.537573311537287, -31.65831811742045 ], [ -62.537558432940862, -31.658264592292564 ], [ -62.537539118879231, -31.65819511067178 ], [ -62.537148745160501, -31.656790733284307 ], [ -62.536918216488125, -31.656833654312234 ], [ -62.536830395987124, -31.656850005069877 ], [ -62.536699271565688, -31.656874418193983 ], [ -62.53659986702926, -31.656892925519553 ], [ -62.536598763293178, -31.657115333454399 ], [ -62.536598342819076, -31.657200060284666 ], [ -62.536588298081902, -31.657311229779371 ], [ -62.536575325558751, -31.657374728941175 ], [ -62.536552938989821, -31.657422307349918 ], [ -62.53654450088009, -31.657422276708392 ], [ -62.536536062770367, -31.657422246066297 ], [ -62.536513872428458, -31.657430285431786 ], [ -62.536501161522736, -31.657441065870184 ], [ -62.536491574600277, -31.657459977602837 ], [ -62.536491502945218, -31.657474412809087 ], [ -62.536481916017287, -31.657493324540855 ], [ -62.536469205099252, -31.657504104975835 ], [ -62.53644701473219, -31.657512144329367 ], [ -62.536438576614465, -31.657512113680752 ], [ -62.536430138496755, -31.657512083031591 ], [ -62.536407948124513, -31.657520122378251 ], [ -62.536395237194341, -31.657530902805714 ], [ -62.536385650241058, -31.657549814529837 ], [ -62.53638557856938, -31.657564249735675 ], [ -62.536385444184837, -31.657591315746544 ], [ -62.536385336677078, -31.657612968555163 ], [ -62.536385202292202, -31.657640034565805 ], [ -62.536385130620197, -31.65765446977144 ], [ -62.536375543651879, -31.657673381494302 ], [ -62.536362832696909, -31.657684161918038 ], [ -62.53635233187412, -31.65768796624636 ], [ -62.536340642277942, -31.657692201252338 ], [ -62.536323766010213, -31.657692139940188 ], [ -62.536301575586059, -31.657700179267632 ], [ -62.53628886461896, -31.657710959683826 ], [ -62.536279277625269, -31.657729871399063 ], [ -62.536279205936651, -31.657744306604265 ], [ -62.536269618937503, -31.657763218318618 ], [ -62.536256907958077, -31.657773998731408 ], [ -62.536246407120927, -31.657777803050827 ], [ -62.536234717508769, -31.657782038046882 ], [ -62.536217841225067, -31.657781976720571 ], [ -62.536195650770594, -31.657790016029203 ], [ -62.536182939779032, -31.657800796434472 ], [ -62.536173352754538, -31.657819708141172 ], [ -62.53617328104928, -31.657834143345958 ], [ -62.536164719786989, -31.657853058779811 ], [ -62.536153376473614, -31.657863844152583 ], [ -62.536133579452539, -31.657871892148961 ], [ -62.536118526740154, -31.657871837437369 ], [ -62.53610078111052, -31.657879892884846 ], [ -62.536092172981583, -31.657890688194065 ], [ -62.536088398289927, -31.657909621021268 ], [ -62.536090797556042, -31.657919317153773 ], [ -62.536091973499346, -31.657924069482085 ], [ -62.536134876096405, -31.658097451002416 ], [ -62.536151572883938, -31.658164927265464 ], [ -62.536188504561125, -31.65831417787809 ], [ -62.536279673508034, -31.658682613503643 ], [ -62.536347603767531, -31.65895713411415 ], [ -62.536484308476801, -31.659509581984441 ], [ -62.536525922551171, -31.659677750506912 ], [ -62.536551173941234, -31.659677842208556 ], [ -62.536560793518433, -31.659677877141178 ], [ -62.536567979263602, -31.659673296581012 ], [ -62.536573459515843, -31.659669803188379 ], [ -62.536580727933696, -31.659659002985556 ], [ -62.536586232980859, -31.659640076432002 ], [ -62.536586304627335, -31.659625641230448 ], [ -62.536633864141336, -31.659606867374695 ], [ -62.536697205168039, -31.659596270740934 ], [ -62.536807998222073, -31.659588552957448 ], [ -62.536892381280786, -31.659588859192016 ], [ -62.537003053517651, -31.659605500643053 ], [ -62.537066233466497, -31.659627383031431 ], [ -62.53711351110028, -31.659665447606223 ], [ -62.537113367970086, -31.65969431801128 ], [ -62.537122673220459, -31.659732244849319 ], [ -62.537135223356394, -31.659753943560659 ], [ -62.537146258400277, -31.659762103530277 ], [ -62.537157293446086, -31.65977026349896 ], [ -62.537174170091404, -31.659770324704454 ], [ -62.537196240191832, -31.659786644636071 ], [ -62.537208790352111, -31.659808343340234 ], [ -62.537218095652086, -31.659846270171116 ], [ -62.537217952553227, -31.659875140575771 ], [ -62.537208271608094, -31.659912998556965 ], [ -62.537195506775085, -31.659934605459437 ], [ -62.537173275637933, -31.659950764732404 ], [ -62.537164837298953, -31.659950734129712 ], [ -62.537156398959993, -31.659950703526466 ], [ -62.537134208066298, -31.659958742991392 ], [ -62.537121496883358, -31.659969523484691 ], [ -62.537111909819593, -31.659988435255169 ], [ -62.537111838253374, -31.660002870456978 ], [ -62.537102251184145, -31.66002178222659 ], [ -62.537089539988884, -31.660032562716477 ], [ -62.537067349070043, -31.660040602169428 ], [ -62.537058910723069, -31.660040571559659 ], [ -62.537050472376116, -31.660040540949328 ], [ -62.537028281452073, -31.660048580395433 ], [ -62.53701557024467, -31.660059360877796 ], [ -62.537005983150095, -31.660078272639755 ], [ -62.537005911567242, -31.66009270784113 ], [ -62.536996324467204, -31.660111619602233 ], [ -62.536983613247472, -31.660122400081192 ], [ -62.536961422298326, -31.660130439515306 ], [ -62.53695298394333, -31.660130408898453 ], [ -62.536944545588383, -31.660130378281043 ], [ -62.536922354634015, -31.660138417708335 ], [ -62.536909643402161, -31.660149198179759 ], [ -62.536900056276771, -31.660168109933206 ], [ -62.536899984677291, -31.660182545134155 ], [ -62.536890397546429, -31.660201456886746 ], [ -62.536877686302248, -31.660212237354759 ], [ -62.536855495322726, -31.660220276770069 ], [ -62.536847056959779, -31.660220246146118 ], [ -62.536838618596839, -31.660220215521633 ], [ -62.536827538063726, -31.660221219861331 ], [ -62.536816457530385, -31.660222224200062 ], [ -62.536810121848781, -31.660223593943812 ], [ -62.536803786166985, -31.660224963687213 ], [ -62.536794268824885, -31.660229803728903 ], [ -62.53679425039946, -31.660233517631731 ], [ -62.536794202032674, -31.660243266626697 ], [ -62.536810579372741, -31.660267529423525 ], [ -62.536811108795135, -31.660268313755054 ], [ -62.53681221738664, -31.66026995611707 ], [ -62.536812521514129, -31.660270406677451 ], [ -62.53681681836165, -31.660276772393193 ], [ -62.536833195713399, -31.660301035187103 ], [ -62.536936512681066, -31.660381136836985 ], [ -62.536975871572679, -31.66041165172949 ], [ -62.537072432857379, -31.660486515420128 ], [ -62.537079188785341, -31.660491753264733 ], [ -62.537091883340771, -31.660491799311867 ], [ -62.537096719361926, -31.660491816853302 ], [ -62.537099640107336, -31.660488114545068 ], [ -62.537103106897192, -31.660483720075785 ], [ -62.537106787588996, -31.660472906831021 ], [ -62.537109601783179, -31.660453970496803 ], [ -62.537109673351004, -31.660439535296018 ], [ -62.537119260462731, -31.660420623527489 ], [ -62.537131971708035, -31.660409843035765 ], [ -62.537154162709641, -31.660401803572839 ], [ -62.537171039469122, -31.660401864779825 ], [ -62.53717893059234, -31.660399005943212 ], [ -62.537193230465547, -31.660393825310059 ], [ -62.537205941698716, -31.6603830448108 ], [ -62.537215528785083, -31.660364133034623 ], [ -62.537215600336282, -31.660349697833418 ], [ -62.537225187417199, -31.660330786056363 ], [ -62.537237898638033, -31.660320005553707 ], [ -62.537260089609312, -31.660311966071959 ], [ -62.537276966352799, -31.660312027264791 ], [ -62.537285133108625, -31.660309068559588 ], [ -62.537299157318898, -31.660303987776189 ], [ -62.537311868527595, -31.660293207265983 ], [ -62.537321455583154, -31.660274295481301 ], [ -62.537321527117726, -31.66025986027967 ], [ -62.537331114167827, -31.660240948494106 ], [ -62.537343825364211, -31.660230167980508 ], [ -62.53736601630515, -31.660222128479941 ], [ -62.537382893032643, -31.660222189658604 ], [ -62.537390784134296, -31.660219330808605 ], [ -62.537405083968409, -31.660214150151177 ], [ -62.537417795152656, -31.660203369630043 ], [ -62.537427382177405, -31.660184457836838 ], [ -62.537427453695344, -31.660170022634794 ], [ -62.537486100117206, -31.660151288648915 ], [ -62.537564223813547, -31.660140745161122 ], [ -62.537700886634532, -31.660133120343989 ], [ -62.537804980049437, -31.660133497376648 ], [ -62.538078225272862, -31.660134486683475 ], [ -62.537687835697092, -31.658730111215675 ], [ -62.537573311537287, -31.65831811742045 ] ] ], [ [ [ -62.536118526740154, -31.657871837437369 ], [ -62.536097764459157, -31.657867701719134 ], [ -62.536085134131461, -31.657862242140197 ], [ -62.536074320593464, -31.657852728912808 ], [ -62.536079013370362, -31.657871693811032 ], [ -62.536118526740154, -31.657871837437369 ] ] ] ] } }
]
}
